[
    {
        "city": "Chicago",
        "zipCode": "60615"
    },
    {
        "city": "Chicago",
        "zipCode": "60649"
    },
    {
        "city": "Chicago",
        "zipCode": "60616"
    },
    {
        "city": "Chicago",
        "zipCode": "60617"
    },
    {
        "city": "Chicago",
        "zipCode": "60619"
    },
    {
        "city": "Chicago",
        "zipCode": "60620"
    },
    {
        "city": "Chicago",
        "zipCode": "60628"
    },
    {
        "city": "Chicago",
        "zipCode": "60629"
    },
    {
        "city": "Chicago",
        "zipCode": "60638"
    },
    {
        "city": "Chicago",
        "zipCode": "60643"
    },
    {
        "city": "Chicago",
        "zipCode": "60608"
    },
    {
        "city": "Chicago Ridge",
        "zipCode": "60415"
    },
    {
        "city": "Hickory Hills",
        "zipCode": "60457"
    },
    {
        "city": "Oaklawn",
        "zipCode": "60453"
    },
    {
        "city": "Burbank",
        "zipCode": "60453"
    },
    {
        "city": "Evergreen Park",
        "zipCode": "60805"
    },
    {
        "city": "Bridgeview",
        "zipCode": "60455"
    },
    {
        "city": "Palos Park",
        "zipCode": "60464"
    },
    {
        "city": "Palos Heights",
        "zipCode": "60463"
    },
    {
        "city": "Blue Island & Riverdale",
        "zipCode": "60406"
    },
    {
        "city": "Alsip",
        "zipCode": "60803"
    },
    {
        "city": "Posen",
        "zipCode": "60469"
    },
    {
        "city": "Merrionette Park",
        "zipCode": "60803"
    },
    {
        "city": "Crestwood",
        "zipCode": "60418"
    },
    {
        "city": "Willow Springs",
        "zipCode": "60480"
    },
    {
        "city": "Oak Forest",
        "zipCode": "60452"
    },
    {
        "city": "Calumet City",
        "zipCode": "60409"
    },
    {
        "city": "Dolton",
        "zipCode": "60419"
    },
    {
        "city": "South Holland",
        "zipCode": "60473"
    },
    {
        "city": "Thornton",
        "zipCode": "60476"
    },
    {
        "city": "Chicago Heights",
        "zipCode": "60411"
    },
    {
        "city": "Calumet Park",
        "zipCode": "60827"
    },
    {
        "city": "Summit",
        "zipCode": "60501"
    },
    {
        "city": "Harvey, Phoenix, Dixmoor",
        "zipCode": "60426"
    },
    {
        "city": "Markham",
        "zipCode": "60428"
    },
    {
        "city": "Hazel Crest",
        "zipCode": "60429"
    },
    {
        "city": "Homewood",
        "zipCode": "60430"
    },
    {
        "city": "Olympia Fields",
        "zipCode": "60461"
    },
    {
        "city": "Tinley Park",
        "zipCode": "60477"
    },
    {
        "city": "Country Club Hills",
        "zipCode": "60478"
    },
    {
        "city": "Flossmoor",
        "zipCode": "60422"
    },
    {
        "city": "Matteson",
        "zipCode": "60443"
    },
    {
        "city": "Park Forest",
        "zipCode": "60466"
    },
    {
        "city": "Richton Park",
        "zipCode": "60471"
    },
    {
        "city": "Orland Park",
        "zipCode": "60462"
    },
    {
        "city": "Mokena",
        "zipCode": "60448"
    },
    {
        "city": "Joliet",
        "zipCode": "60436"
    },
    {
        "city": "Darien",
        "zipCode": "60561"
    },
    {
        "city": "Burr Ridge",
        "zipCode": "60527"
    },
    {
        "city": "Midlothian",
        "zipCode": "60445"
    },
    {
        "city": "Hinsdale",
        "zipCode": "60521"
    },
    {
        "city": "Willowbrook",
        "zipCode": "60527"
    },
    {
        "city": "Western Springs",
        "zipCode": "60558"
    },
    {
        "city": "Robbins",
        "zipCode": "60472"
    },
    {
        "city": "Riverside",
        "zipCode": "60546"
    },
    {
        "city": "La Grange",
        "zipCode": "60525"
    },
    {
        "city": "Clarendon Hills",
        "zipCode": "60514"
    },
    {
        "city": "Forest View",
        "zipCode": "60638"
    },
    {
        "city": "Bedford Park",
        "zipCode": "60499"
    },
    {
        "city": "Bolingbrook",
        "zipCode": "60440"
    }
]